NORAD_CAT_ID,OBJECT_NAME,OBJECT_TYPE,EPOCH,MEAN_MOTION,ECCENTRICITY,INCLINATION,RA_OF_ASC_NODE,ARG_OF_PERICENTER,MEAN_ANOMALY,BSTAR,MEAN_MOTION_DOT,MEAN_MOTION_DDOT,TLE_LINE0,TLE_LINE1,TLE_LINE2,SEMIMAJOR_AXIS,PERIOD,APOGEE,PERIGEE,DECAYED
54056.0,STARLINK-5226,PAYLOAD,2024-05-14 06:22:44,15.10464186,0.0001156,53.2171,86.4797,89.6942,270.4183,0.00064008,0.00010375,0.0,0 STARLINK-5226,1 54056U 22136F   24135.26579641  .00010375  00000-0  64008-3 0  9996,2 54056  53.2171  86.4797 0001156  89.6942 270.4183 15.10464186 86547,6912.92,95.335,535.584,533.986,0.0
54056.0,STARLINK-5226,PAYLOAD,2024-05-15 03:01:23,15.10515489,0.0001124,53.2162,82.6062,92.0504,268.0618,0.00056402,9.119e-05,0.0,0 STARLINK-5226,1 54056U 22136F   24136.12596888  .00009119  00000-0  56402-3 0  9997,2 54056  53.2162  82.6062 0001124  92.0504 268.0618 15.10515489 87154,6912.764,95.332,535.406,533.852,0.0
54056.0,STARLINK-5226,PAYLOAD,2024-05-15 20:29:29,15.10500004,0.0001196,53.2157,79.3307,85.579,274.5339,5.384e-05,6.04e-06,0.0,0 STARLINK-5226,1 54056U 22136F   24136.85381450  .00000604  00000-0  53840-4 0  9998,2 54056  53.2157  79.3307 0001196  85.5790 274.5339 15.10500004 87267,6912.811,95.333,535.503,533.849,0.0
54056.0,STARLINK-5226,PAYLOAD,2024-05-16 02:50:18,15.11005099,0.0004153,53.2166,78.1379,191.0983,168.9919,0.0091602,0.0015793,0.0,0 STARLINK-5226,1 54056U 22136F   24137.11827406  .00157930  00000-0  91602-2 0  9995,2 54056  53.2166  78.1379 0004153 191.0983 168.9919 15.11005099 87306,6911.27,95.301,536.006,530.265,0.0
54056.0,STARLINK-5226,PAYLOAD,2024-05-16 14:00:01,15.10443443,0.0001119,53.2165,76.0495,106.4314,262.8415,0.0025149,0.00041783,0.0,0 STARLINK-5226,1 54056U 22136F   24137.58334491  .00041783  00000-0  25149-2 0  9994,2 54056  53.2165  76.0495 0001119 106.4314 262.8415 15.10443443 87378,6912.984,95.336,535.622,534.075,0.0
54056.0,STARLINK-5226,PAYLOAD,2024-05-16 22:00:00,15.10508178,0.0001146,53.2168,74.5496,104.881,277.9248,-0.0003765,-6.56e-05,0.0,0 STARLINK-5226,1 54056U 22136F   24137.91667824 -.00006560  00000-0 -37650-3 0  9997,2 54056  53.2168  74.5496 0001146 104.8810 277.9248 15.10508178  5860,6912.786,95.332,535.443,533.859,0.0
54056.0,STARLINK-5226,PAYLOAD,2024-05-17 12:11:31,15.10471311,0.0001147,53.217,71.8872,142.4849,217.6224,0.00055095,8.89e-05,0.0,0 STARLINK-5226,1 54056U 22136F   24138.50800577  .00008890  00000-0  55095-3 0  9996,2 54056  53.2170  71.8872 0001147 142.4849 217.6224 15.10471311 87517,6912.899,95.334,535.557,533.971,0.0
54056.0,STARLINK-5226,PAYLOAD,2024-05-17 20:07:57,15.10450367,0.0001632,53.2169,70.3988,71.7835,288.3336,0.00047036,7.541e-05,0.0,0 STARLINK-5226,1 54056U 22136F   24138.83886328  .00007541  00000-0  47036-3 0  9998,2 54056  53.2169  70.3988 0001632  71.7835 288.3336 15.10450367 87567,6912.963,95.336,535.956,533.699,0.0
54056.0,STARLINK-5226,PAYLOAD,2024-05-18 12:00:46,15.10494423,0.0001044,53.2165,67.4181,72.766,287.3447,0.001425,0.00023521,0.0,0 STARLINK-5226,1 54056U 22136F   24139.50054275  .00023521  00000-0  14250-2 0  9998,2 54056  53.2165  67.4181 0001044  72.7660 287.3447 15.10494423 87663,6912.828,95.333,535.415,533.971,0.0
54056.0,STARLINK-5226,PAYLOAD,2024-05-18 19:57:11,15.10460675,8.72e-05,53.2177,65.9322,107.0709,253.0379,-0.00017216,-3.156e-05,0.0,0 STARLINK-5226,1 54056U 22136F   24139.83138855 -.00003156  00000-0 -17216-3 0  9991,2 54056  53.2177  65.9322 0000872 107.0709 253.0379 15.10460675 87712,6912.931,95.335,535.399,534.193,0.0
54056.0,STARLINK-5226,PAYLOAD,2024-05-19 03:53:42,15.1025653,6.86e-05,53.2162,64.4435,35.1271,324.9767,-0.0043078,-0.0007087,0.0,0 STARLINK-5226,1 54056U 22136F   24140.16229513 -.00070870  00000-0 -43078-2 0  9992,2 54056  53.2162  64.4435 0000686  35.1271 324.9767 15.10256530 87760,6913.554,95.348,535.893,534.945,0.0
54056.0,STARLINK-5226,PAYLOAD,2024-05-19 05:29:00,15.10173938,0.0001548,53.2161,64.1438,66.5175,293.5981,-0.0087649,-0.00142157,0.0,0 STARLINK-5226,1 54056U 22136F   24140.22847907 -.00142157  00000-0 -87649-2 0  9992,2 54056  53.2161  64.1438 0001548  66.5175 293.5981 15.10173938 87295,6913.806,95.353,536.741,534.601,0.0
54056.0,STARLINK-5226,PAYLOAD,2024-05-20 02:08:25,15.09231212,0.0001537,53.2163,60.2752,118.5467,241.568,-0.020848,-0.00321013,0.0,0 STARLINK-5226,1 54056U 22136F   24141.08918544 -.00321013  00000-0 -20848-1 0  9990,2 54056  53.2163  60.2752 0001537 118.5467 241.5680 15.09231212 87908,6916.685,95.413,539.613,537.487,0.0
54056.0,STARLINK-5226,PAYLOAD,2024-05-20 14:00:01,15.08818833,0.000126,53.2162,58.0592,90.3863,75.6133,0.0016076,0.00025375,0.0,0 STARLINK-5226,1 54056U 22136F   24141.58334491  .00025375  00000-0  16076-2 0  9997,2 54056  53.2162  58.0592 0001260  90.3863  75.6133 15.08818833 87980,6917.945,95.439,540.682,538.938,0.0
54056.0,STARLINK-5226,PAYLOAD,2024-05-21 14:00:01,15.08798006,0.0001299,53.2164,53.5702,114.2962,86.4863,0.0044576,0.00071291,0.0,0 STARLINK-5226,1 54056U 22136F   24142.58334491  .00071291  00000-0  44576-2 0  9992,2 54056  53.2164  53.5702 0001299 114.2962  86.4863 15.08798006 88130,6918.009,95.44,540.772,538.975,0.0
54056.0,STARLINK-5226,PAYLOAD,2024-05-21 22:00:00,15.08881482,0.000141,53.2166,52.0749,115.2742,97.0739,-0.0037522,-0.00059578,0.0,0 STARLINK-5226,1 54056U 22136F   24142.91667824 -.00059578  00000-0 -37522-2 0  9997,2 54056  53.2166  52.0749 0001410 115.2742  97.0739 15.08881482  5803,6917.754,95.435,540.594,538.643,0.0
54056.0,STARLINK-5226,PAYLOAD,2024-05-22 06:00:00,15.08805816,0.0001318,53.2165,50.5793,116.5341,107.4463,0.0012674,0.00019921,0.0,0 STARLINK-5226,1 54056U 22136F   24143.25001157  .00019921  00000-0  12674-2 0  9993,2 54056  53.2165  50.5793 0001318 116.5341 107.4463 15.08805816 88235,6917.985,95.44,540.762,538.938,0.0
54056.0,STARLINK-5226,PAYLOAD,2024-05-22 14:00:01,15.08788726,0.0001162,53.2168,49.0813,97.8176,137.7152,0.0049295,0.00078933,0.0,0 STARLINK-5226,1 54056U 22136F   24143.58334491  .00078933  00000-0  49295-2 0  9996,2 54056  53.2168  49.0813 0001162  97.8176 137.7152 15.08788726  5700,6918.037,95.441,540.706,539.098,0.0
54056.0,STARLINK-5226,PAYLOAD,2024-05-22 22:00:00,15.08869104,0.0001268,53.217,47.5862,92.2845,154.8039,-0.0031165,-0.00049585,0.0,0 STARLINK-5226,1 54056U 22136F   24143.91667824 -.00049585  00000-0 -31165-2 0  9992,2 54056  53.2170  47.5862 0001268  92.2845 154.8039 15.08869104  5758,6917.791,95.436,540.534,538.779,0.0
54056.0,STARLINK-5226,PAYLOAD,2024-05-23 06:00:00,15.08814556,0.0001286,53.217,46.0905,82.4944,176.2017,0.0022256,0.00035285,0.0,0 STARLINK-5226,1 54056U 22136F   24144.25001157  .00035285  00000-0  22256-2 0  9992,2 54056  53.2170  46.0905 0001286  82.4944 176.2017 15.08814556 88386,6917.958,95.439,540.713,538.934,0.0
54056.0,STARLINK-5226,PAYLOAD,2024-05-23 14:00:01,15.08811614,0.0001293,53.2173,44.5925,93.7777,176.5019,0.0048815,0.00078203,0.0,0 STARLINK-5226,1 54056U 22136F   24144.58334491  .00078203  00000-0  48815-2 0  9994,2 54056  53.2173  44.5925 0001293  93.7777 176.5019 15.08811614  5859,6917.967,95.439,540.727,538.938,0.0
54056.0,STARLINK-5226,PAYLOAD,2024-05-23 20:00:01,15.0888552,0.0001366,53.2176,43.4709,95.7286,93.2902,-0.0030148,-0.00048008,0.0,0 STARLINK-5226,1 54056U 22136F   24144.83335648 -.00048008  00000-0 -30148-2 0  9999,2 54056  53.2176  43.4709 0001366  95.7286  93.2902 15.08885520  5749,6917.741,95.435,540.551,538.661,0.0
54056.0,STARLINK-5226,PAYLOAD,2024-05-24 03:06:53,15.08858516,0.0001438,53.2183,42.1354,97.8682,262.2474,0.00085423,0.0001334,0.0,0 STARLINK-5226,1 54056U 22136F   24145.12979086  .00013340  00000-0  85423-3 0  9998,2 54056  53.2183  42.1354 0001438  97.8682 262.2474 15.08858516 88515,6917.824,95.436,540.684,538.694,0.0
54056.0,STARLINK-5226,PAYLOAD,2024-05-24 20:36:08,15.08846542,0.0001412,53.2179,38.8603,101.7862,258.3289,0.00037031,5.611e-05,0.0,0 STARLINK-5226,1 54056U 22136F   24145.85843390  .00005611  00000-0  37031-3 0  9990,2 54056  53.2179  38.8603 0001412 101.7862 258.3289 15.08846542 88624,6917.86,95.437,540.702,538.749,0.0
54056.0,STARLINK-5226,PAYLOAD,2024-05-24 22:11:31,15.08846185,0.0001094,53.2166,38.5641,88.5263,271.5854,0.00059535,9.201e-05,0.0,0 STARLINK-5226,1 54056U 22136F   24145.92467483  .00009201  00000-0  59535-3 0  9995,2 54056  53.2166  38.5641 0001094  88.5263 271.5854 15.08846185 88158,6917.861,95.437,540.483,538.97,0.0
54056.0,STARLINK-5226,PAYLOAD,2024-05-24 23:46:55,15.08831156,0.0001237,53.2172,38.2739,102.3294,257.7836,-0.00024846,-4.239e-05,0.0,0 STARLINK-5226,1 54056U 22136F   24145.99091592 -.00004239  00000-0 -24846-3 0  9991,2 54056  53.2172  38.2739 0001237 102.3294 257.7836 15.08831156 88640,6917.907,95.438,540.628,538.917,0.0
54056.0,STARLINK-5226,PAYLOAD,2024-05-25 09:19:13,15.0884354,0.0001233,53.2171,36.4903,99.4954,260.6178,0.00052176,8.026e-05,0.0,0 STARLINK-5226,1 54056U 22136F   24146.38835487  .00008026  00000-0  52176-3 0  9997,2 54056  53.2171  36.4903 0001233  99.4954 260.6178 15.08843540 88706,6917.87,95.437,540.588,538.882,0.0
54056.0,STARLINK-5226,PAYLOAD,2024-05-25 20:26:56,15.08835417,0.000125,53.217,34.4087,106.3299,253.783,0.00020288,2.942e-05,0.0,0 STARLINK-5226,1 54056U 22136F   24146.85203862  .00002942  00000-0  20288-3 0  9995,2 54056  53.2170  34.4087 0001250 106.3299 253.7830 15.08835417 88774,6917.894,95.438,540.624,538.895,0.0
54056.0,STARLINK-5226,PAYLOAD,2024-05-25 23:37:42,15.08840347,0.0001149,53.2171,33.8142,98.7512,261.361,0.00037304,5.654e-05,0.0,0 STARLINK-5226,1 54056U 22136F   24146.98451927  .00005654  00000-0  37304-3 0  9996,2 54056  53.2171  33.8142 0001149  98.7512 261.3610 15.08840347 88318,6917.879,95.438,540.539,538.949,0.0
54056.0,STARLINK-5226,PAYLOAD,2024-05-26 21:53:06,15.08846782,0.0001299,53.2173,29.6516,88.9046,271.2095,0.00038121,5.785e-05,0.0,0 STARLINK-5226,1 54056U 22136F   24147.91187924  .00005785  00000-0  38121-3 0  9996,2 54056  53.2173  29.6516 0001299  88.9046 271.2095 15.08846782 88458,6917.86,95.437,540.623,538.826,0.0
